ORBCOMM-X [-]           
1 21576U 91050C   24058.43895709  .00000508  00000+0  16670-3 0  9995
2 21576  98.4024 127.4042 0003917 166.2680 193.8617 14.42380843713518
ORBCOMM FM01 [-]        
1 23545U 95017A   24058.60725257  .00005906  00000+0  81354-3 0  9997
2 23545  69.9683 169.1182 0008007 305.4469  54.5932 14.78694548541943
ORBCOMM FM02 [-]        
1 23546U 95017B   24058.61576493  .00006515  00000+0  90510-3 0  9996
2 23546  69.9702 188.3876 0009830 302.9711  57.0491 14.78266890541590
ORBCOMM FM08 [-]        
1 25112U 97084A   24058.52755960  .00002107  00000+0  67839-3 0  9992
2 25112  45.0138 124.4566 0006775 350.5342   9.5379 14.42073740372624
ORBCOMM FM10 [-]        
1 25113U 97084B   24058.53039544  .00002143  00000+0  69012-3 0  9992
2 25113  45.0150 126.2453 0005611 316.1078  43.9325 14.42000625547771
ORBCOMM FM11 [+]        
1 25114U 97084C   24058.47386429  .00002186  00000+0  70489-3 0  9990
2 25114  45.0135 126.5263 0006285 318.7870  41.2505 14.41886947372734
ORBCOMM FM12 [-]        
1 25115U 97084D   24058.50126332  .00002038  00000+0  66050-3 0  9995
2 25115  45.0140 126.0680 0005369 316.0638  43.9785 14.41858804372532
ORBCOMM FM09 [-]        
1 25116U 97084E   24058.30301756  .00002112  00000+0  68311-3 0  9994
2 25116  45.0145 127.6796 0006844 306.3362  53.6856 14.41824428372710
